COSMOS 2251 DEB         
1 34042U 93036JD  13128.12786230  .00010833  00000-0  13211-2 0  2851
2 34042  73.8840 228.1674 0125449 140.3364 290.9710 14.77915486227068
COSMOS 2251 DEB         
1 34045U 93036JG  13128.17414645  .00000182  00000-0  76776-4 0  7451
2 34045  74.0411  75.0631 0027571 202.9245 266.6592 14.32287459221223
COSMOS 2251 DEB         
1 34046U 93036JH  13128.16101034  .00001550  00000-0  63466-3 0  1091
2 34046  74.0436 117.2617 0110098 242.5595 243.5573 14.24796077219940
COSMOS 2251 DEB         
1 34050U 93036JM  13128.44941892  .00000420  00000-0  29651-3 0  2354
2 34050  74.0931 279.4734 0233270   8.8247  25.0106 13.88618583214552
COSMOS 2251 DEB         
1 34051U 93036JN  13127.77539131  .00004524  00000-0  95710-3 0  8982
2 34051  73.9926 326.8842 0071235 203.0646 258.9371 14.57987755224644
COSMOS 2251 DEB         
1 34053U 93036JQ  13127.99756047  .00000239  00000-0  25498-3 0   836
2 34053  73.8488  65.6721 0433607 259.1350 178.2978 13.44908554207734
COSMOS 2251 DEB         
1 34054U 93036JR  13126.81348215  .00002995  00000-0  85032-3 0  8874
2 34054  74.0482  33.3289 0040072 209.9338 184.4962 14.45400372222558
COSMOS 2251 DEB         
1 34055U 93036JS  13126.78969137  .00001451  00000-0  39484-3 0  9443
2 34055  74.1178  53.5536 0117271 177.2842 216.9618 14.44381780222306
COSMOS 2251 DEB         
1 34056U 93036JT  13128.42861157  .00001132  00000-0  67067-3 0  2256
2 34056  74.0719 221.4844 0163904 297.6123 159.0711 14.02315026216373
COSMOS 2251 DEB         
1 34057U 93036JU  13128.17861223  .00004258  00000-0  13066-2 0  8968
2 34057  74.0336  50.4604 0039326 202.6528 270.5618 14.41495902222005
COSMOS 2251 DEB         
1 34058U 93036JV  13127.80654683  .00000296  00000-0  29824-3 0  1420
2 34058  73.9361  47.8866 0389556 193.1687 253.2619 13.52347501208808
COSMOS 2251 DEB         
1 34059U 93036JW  13127.34980556  .00001214  00000-0  42518-3 0  7726
2 34059  74.0476  66.7782 0024887 202.1517 303.8478 14.35994916221430
COSMOS 2251 DEB         
1 34060U 93036JX  13128.52576191  .00024152  00000-0  37024-2 0  9762
2 34060  74.0290 320.7499 0077914 137.6718 257.0528 14.71508539224934
COSMOS 2251 DEB         
1 34061U 93036JY  13126.94421389  .00000607  00000-0  22640-3 0  7334
2 34061  74.0443  72.6931 0023071 203.4677 189.7890 14.33892398221184
COSMOS 2251 DEB         
1 34062U 93036JZ  13128.19926786  .00002032  00000-0  64327-3 0  1410
2 34062  74.0463  79.8664 0158609 223.6014 250.3289 14.33833957221019
COSMOS 2251 DEB         
1 34063U 93036KA  13128.13189175  .00034880  00000-0  53442-2 0  2779
2 34063  74.0160 350.0261 0029320 150.7707 354.9216 14.73211540223876
COSMOS 2251 DEB         
1 34064U 93036KB  13127.82667932  .00000876  00000-0  33171-3 0  7352
2 34064  74.0373  78.2733 0026458 189.8302 202.4157 14.32467525221048
COSMOS 2251 DEB         
1 34065U 93036KC  13127.35499508  .00000323  00000-0  12325-3 0  7381
2 34065  74.0394  65.8871 0017859 212.7926 293.5040 14.34712321221445
COSMOS 2251 DEB         
1 34066U 93036KD  13127.82127733  .00010227  00000-0  27751-2 0  1771
2 34066  74.0031 148.2377 0330816 311.1280  99.2831 14.19968809218047
COSMOS 2251 DEB         
1 34069U 93036KG  13126.16574632  .00004055  00000-0  98302-3 0  9506
2 34069  74.0243   2.2320 0051257 210.8673 295.1421 14.52487564223276
COSMOS 2251 DEB         
1 34070U 93036KH  13127.82921029  .00002321  00000-0  81906-3 0  8299
2 34070  74.0180  72.1116 0045715 207.8482 181.9447 14.34707150221200
COSMOS 2251 DEB         
1 34114U 93036KK  13127.79084503  .00002172  00000-0  96352-3 0   861
2 34114  74.0713 139.5865 0082396 215.3374 195.1146 14.21846795219395
COSMOS 2251 DEB         
1 34115U 93036KL  13127.81938390  .00001746  00000-0  45770-3 0  1457
2 34115  74.0231   2.9532 0048821 242.9206 215.6642 14.49331489223719
COSMOS 2251 DEB         
1 34116U 93036KM  13127.87480940  .00001322  00000-0  45994-3 0  1376
2 34116  74.0508  64.7098 0017706 200.9476 194.1069 14.36333496221810
COSMOS 2251 DEB         
1 34117U 93036KN  13126.78718997  .00000941  00000-0  37773-3 0  7426
2 34117  74.0439 101.1098 0069290 222.4589 207.8096 14.28266385222488
COSMOS 2251 DEB         
1 34118U 93036KP  13127.20646188  .00001983  00000-0  52114-3 0  8836
2 34118  73.9760  23.9721 0142399 207.1963 299.3023 14.43950249221623
COSMOS 2251 DEB         
1 34119U 93036KQ  13127.40073185  .00004228  00000-0  15124-2 0  8665
2 34119  74.0561  91.6051 0042322 183.1245 322.3729 14.33837074219877
COSMOS 2251 DEB         
1 34120U 93036KR  13129.45797631  .00000244  00000-0  17193-3 0  2996
2 34120  73.9953 234.3566 0190615 343.3126 113.5738 13.94872888217816
COSMOS 2251 DEB         
1 34121U 93036KS  13128.53195552  .00000985  00000-0  75374-3 0  2480
2 34121  74.0018 311.2771 0271160  62.3352 333.9961 13.78660516215075
COSMOS 2251 DEB         
1 34122U 93036KT  13127.33161363  .00003120  00000-0  95909-3 0  7723
2 34122  74.0503  61.6821 0123070  30.7447 113.5800 14.37686316221744
COSMOS 2251 DEB         
1 34123U 93036KU  13126.98551410  .00004289  00000-0  14190-2 0  8348
2 34123  74.0363  68.7653 0023125 177.2873 306.2975 14.38080024221424
COSMOS 2251 DEB         
1 34124U 93036KV  13127.97894516  .00004902  00000-0  15650-2 0  7226
2 34124  74.0380  62.1748 0028479 184.6431 302.6780 14.39721877221643
COSMOS 2251 DEB         
1 34126U 93036KX  13127.73683060  .00002755  00000-0  59313-3 0  1247
2 34126  74.0104 330.0682 0072996 218.4684 267.5830 14.57335468224647
COSMOS 2251 DEB         
1 34127U 93036KY  13128.04442313  .00001661  00000-0  91580-3 0   490
2 34127  74.1760 218.1276 0141453 239.8802 186.6642 14.07332301217031
COSMOS 2251 DEB         
1 34128U 93036KZ  13127.73007149  .00002720  00000-0  78051-3 0  1306
2 34128  74.0236  32.7518 0082927 201.3453 239.7671 14.43395909222282
COSMOS 2251 DEB         
1 34129U 93036LA  13127.22426285  .00001805  00000-0  51829-3 0  1449
2 34129  74.0549  31.5621 0057462 202.9036 302.6804 14.44665690222389
COSMOS 2251 DEB         
1 34130U 93036LB  13127.82273405  .00003545  00000-0  94970-3 0  1707
2 34130  74.0430  22.9313 0034061 222.5929 251.1190 14.48245701223031
COSMOS 2251 DEB         
1 34131U 93036LC  13127.85892601  .00005380  00000-0  16556-2 0  8648
2 34131  74.1292  70.4621 0012690 154.0407 240.8716 14.41681469221881
COSMOS 2251 DEB         
1 34134U 93036LF  13127.69802101  .00015164  00000-0  24877-2 0  2537
2 34134  73.9553 293.2235 0074167 186.8210 277.2544 14.68865628225202
COSMOS 2251 DEB         
1 34135U 93036LG  13128.19793740  .00215219  00000-0  34415-2 0  6268
2 34135  74.0439 138.1596 0062235 311.0629 172.2932 15.50132687230805
COSMOS 2251 DEB         
1 34136U 93036LH  13128.48040515  .00002206  00000-0  40543-3 0  1711
2 34136  74.0258 300.8233 0119593 147.3826 298.0239 14.61728404225305
COSMOS 2251 DEB         
1 34138U 93036LK  13128.20472461  .00134281  00000-0  37540-2 0  6156
2 34138  73.9479 155.1542 0060025  15.7737 105.2590 15.34275309229448
COSMOS 2251 DEB         
1 34139U 93036LL  13128.45327126  .00001644  00000-0  63320-3 0  1158
2 34139  74.0406  95.9231 0069781 216.1989 291.6664 14.29767468219997
COSMOS 2251 DEB         
1 34141U 93036LN  13128.52676413  .00002010  00000-0  89321-3 0  1051
2 34141  74.0195 128.2405 0080348 222.8459 284.2403 14.21897528219099
COSMOS 2251 DEB         
1 34142U 93036LP  13127.64129632  .00002862  00000-0  66371-3 0  9110
2 34142  73.9992 343.7059 0060426 209.7731 185.3421 14.54394053223776
COSMOS 2251 DEB         
1 34270U 93036LQ  13127.13049083  .00000904  00000-0  24543-3 0  8004
2 34270  74.0202   7.5894 0067480 208.0793 305.8658 14.47770278222301
COSMOS 2251 DEB         
1 34271U 93036LR  13128.33049692  .00002320  00000-0  87470-3 0  7500
2 34271  74.0380  89.6678 0045075 193.2491 317.7151 14.31393493219215
COSMOS 2251 DEB         
1 34273U 93036LT  13127.79306605  .00001563  00000-0  49656-3 0   269
2 34273  74.0481  45.4936 0022176 227.8397 166.9793 14.40657962220720
COSMOS 2251 DEB         
1 34274U 93036LU  13128.16462183  .00001746  00000-0  56119-3 0  7718
2 34274  74.0185  44.9813 0034666 217.0539 261.7195 14.39778378221146
COSMOS 2251 DEB         
1 34275U 93036LV  13127.36469752  .00003608  00000-0  12149-2 0  8746
2 34275  74.0371  69.3728 0023858 186.3903 319.8947 14.37258065220260
COSMOS 2251 DEB         
1 34276U 93036LW  13127.81784150  .00001282  00000-0  40499-3 0   848
2 34276  74.0301  39.0085 0030845 228.9826 165.6211 14.40992632220849
COSMOS 2251 DEB         
1 34277U 93036LX  13127.93558127  .00008028  00000-0  17412-2 0  1063
2 34277  73.7042 302.3991 0062085   6.3308 144.2457 14.57078415223721
COSMOS 2251 DEB         
1 34291U 93036MM  13128.33757459  .00009169  00000-0  69383-3 0  4248
2 34291  74.1826 235.2911 0142226   0.9053  54.9573 14.94632349228185
COSMOS 2251 DEB         
1 34292U 93036MN  13127.75078667  .00005406  00000-0  10528-2 0  8724
2 34292  74.0666 327.9647 0092338 156.2648 308.1829 14.60568368224169
COSMOS 2251 DEB         
1 34293U 93036MP  13128.51400899  .00002718  00000-0  47035-3 0   646
2 34293  73.9684 307.2786 0124609 259.7238 185.3990 14.63888430224234
COSMOS 2251 DEB         
1 34294U 93036MQ  13128.22196946  .00007160  00000-0  14113-2 0   736
2 34294  73.9736 355.2048 0153887 176.9356 302.3683 14.55358390222818
COSMOS 2251 DEB         
1 34295U 93036MR  13126.81296792  .00003184  00000-0  77177-3 0  9067
2 34295  74.0267  11.0165 0100262 321.1475 165.1716 14.50372080222653
COSMOS 2251 DEB         
1 34296U 93036MS  13127.09678591  .00015437  00000-0  21474-2 0  3516
2 34296  74.0654   2.5488 0237206 142.9818 340.3680 14.60253052222932
COSMOS 2251 DEB         
1 34297U 93036MT  13128.16585036  .00000275  00000-0  10802-3 0  7328
2 34297  74.0514  69.9194 0018392 201.6329 264.2161 14.33891340220925
